NORAD_CAT_ID,OBJECT_NAME,OBJECT_TYPE,EPOCH,MEAN_MOTION,ECCENTRICITY,INCLINATION,RA_OF_ASC_NODE,ARG_OF_PERICENTER,MEAN_ANOMALY,BSTAR,MEAN_MOTION_DOT,MEAN_MOTION_DDOT,TLE_LINE0,TLE_LINE1,TLE_LINE2,SEMIMAJOR_AXIS,PERIOD,APOGEE,PERIGEE,DECAYED
53778.0,STARLINK-4709,PAYLOAD,2024-05-14 09:25:53,15.0889218,0.0001363,53.2173,20.9932,77.8199,282.2946,0.00096659,0.00015151,0.0,0 STARLINK-4709,1 53778U 22111F   24135.39298086  .00015151  00000-0  96659-3 0  9998,2 53778  53.2173  20.9932 0001363  77.8199 282.2946 15.08892180 92536,6917.721,95.434,540.529,538.643,0.0
53778.0,STARLINK-4709,PAYLOAD,2024-05-14 22:08:58,15.08837953,0.000153,53.2171,18.6124,87.1117,273.005,0.00054802,8.444e-05,0.0,0 STARLINK-4709,1 53778U 22111F   24135.92290251  .00008444  00000-0  54802-3 0  9994,2 53778  53.2171  18.6124 0001530  87.1117 273.0050 15.08837953 93421,6917.887,95.438,540.81,538.693,0.0
53778.0,STARLINK-4709,PAYLOAD,2024-05-15 01:19:44,15.08851869,0.000157,53.2182,18.0183,89.4086,270.7086,0.00052141,8.023e-05,0.0,0 STARLINK-4709,1 53778U 22111F   24136.05537899  .00008023  00000-0  52141-3 0  9998,2 53778  53.2182  18.0183 0001570  89.4086 270.7086 15.08851869 92633,6917.844,95.437,540.795,538.623,0.0
53778.0,STARLINK-4709,PAYLOAD,2024-05-15 09:16:40,15.08868559,0.0001667,53.2177,16.526,79.6888,280.4292,0.0015382,0.00024296,0.0,0 STARLINK-4709,1 53778U 22111F   24136.38657717  .00024296  00000-0  15382-2 0  9991,2 53778  53.2177  16.5260 0001667  79.6888 280.4292 15.08868559 93490,6917.793,95.436,540.811,538.505,0.0
53778.0,STARLINK-4709,PAYLOAD,2024-05-15 21:59:45,15.08844426,0.000116,53.2178,14.1512,82.9901,277.1223,0.00031026,4.654e-05,0.0,0 STARLINK-4709,1 53778U 22111F   24136.91649886  .00004654  00000-0  31026-3 0  9998,2 53778  53.2178  14.1512 0001160  82.9901 277.1223 15.08844426 92769,6917.867,95.437,540.534,538.929,0.0
53778.0,STARLINK-4709,PAYLOAD,2024-05-16 01:10:31,15.08860454,0.0001419,53.2169,13.5577,78.5276,281.5876,0.0024077,0.0003826,0.0,0 STARLINK-4709,1 53778U 22111F   24137.04897824  .00038260  00000-0  24077-2 0  9997,2 53778  53.2169  13.5577 0001419  78.5276 281.5876 15.08860454 92780,6917.818,95.436,540.665,538.701,0.0
53778.0,STARLINK-4709,PAYLOAD,2024-05-16 09:07:26,15.08876215,0.0001473,53.2168,12.0708,80.9343,279.1815,0.0021211,0.00033664,0.0,0 STARLINK-4709,1 53778U 22111F   24137.38017315  .00033664  00000-0  21211-2 0  9993,2 53778  53.2168  12.0708 0001473  80.9343 279.1815 15.08876215 93645,6917.77,95.435,540.654,538.616,0.0
53778.0,STARLINK-4709,PAYLOAD,2024-05-16 15:29:00,15.08887656,0.0004375,53.2173,10.8803,86.1256,274.0236,0.0029269,0.0004667,0.0,0 STARLINK-4709,1 53778U 22111F   24137.64514059  .00046670  00000-0  29269-2 0  9991,2 53778  53.2173  10.8803 0004375  86.1256 274.0236 15.08887656 92874,6917.735,95.435,542.626,536.573,0.0
53778.0,STARLINK-4709,PAYLOAD,2024-05-17 08:58:14,15.08855345,0.0001248,53.2179,7.6089,107.727,252.3858,0.0015224,0.00024034,0.0,0 STARLINK-4709,1 53778U 22111F   24138.37377645  .00024034  00000-0  15224-2 0  9996,2 53778  53.2179   7.6089 0001248 107.7270 252.3858 15.08855345 92983,6917.833,95.437,540.562,538.835,0.0
53778.0,STARLINK-4709,PAYLOAD,2024-05-17 21:41:20,15.08836961,0.0002807,53.217,5.2305,92.407,267.7243,0.0020271,0.00032119,0.0,0 STARLINK-4709,1 53778U 22111F   24138.90370822  .00032119  00000-0  20271-2 0  9996,2 53778  53.2170   5.2305 0002807  92.4070 267.7243 15.08836961 93060,6917.89,95.438,541.697,537.813,0.0
53778.0,STARLINK-4709,PAYLOAD,2024-05-18 00:52:06,15.08827749,0.0001616,53.2185,4.6363,85.668,274.4497,0.0019158,0.00030323,0.0,0 STARLINK-4709,1 53778U 22111F   24139.03618982  .00030323  00000-0  19158-2 0  9990,2 53778  53.2185   4.6363 0001616  85.6680 274.4497 15.08827749 93083,6917.918,95.438,540.901,538.665,0.0
53778.0,STARLINK-4709,PAYLOAD,2024-05-18 21:32:06,15.0887531,0.0001383,53.2174,0.7685,86.6991,273.416,0.0014161,0.00022343,0.0,0 STARLINK-4709,1 53778U 22111F   24139.89729930  .00022343  00000-0  14161-2 0  9992,2 53778  53.2174   0.7685 0001383  86.6991 273.4160 15.08875310 94020,6917.772,95.435,540.594,538.681,0.0
53778.0,STARLINK-4709,PAYLOAD,2024-05-19 19:47:31,15.0881018,0.0001403,53.2182,356.6081,120.1355,239.9776,0.00095474,0.00014927,0.0,0 STARLINK-4709,1 53778U 22111F   24140.82466600  .00014927  00000-0  95474-3 0  9995,2 53778  53.2182 356.6081 0001403 120.1355 239.9776 15.08810180 93352,6917.972,95.439,540.807,538.866,0.0
53778.0,STARLINK-4709,PAYLOAD,2024-05-20 14:52:09,15.08840411,0.0001195,53.2166,353.0403,116.4398,243.6717,0.0013123,0.00020659,0.0,0 STARLINK-4709,1 53778U 22111F   24141.61955471  .00020659  00000-0  13123-2 0  9991,2 53778  53.2166 353.0403 0001195 116.4398 243.6717 15.08840411 94286,6917.879,95.438,540.571,538.917,0.0
53778.0,STARLINK-4709,PAYLOAD,2024-05-20 19:38:18,15.08849077,0.0001189,53.2167,352.1487,115.6537,244.4578,0.0013796,0.00021742,0.0,0 STARLINK-4709,1 53778U 22111F   24141.81827401  .00021742  00000-0  13796-2 0  9994,2 53778  53.2167 352.1487 0001189 115.6537 244.4578 15.08849077 93503,6917.853,95.437,540.54,538.895,0.0
53778.0,STARLINK-4709,PAYLOAD,2024-05-21 21:04:28,15.08855211,0.0001081,53.2163,347.3903,116.6895,243.4208,0.00053615,8.259e-05,0.0,0 STARLINK-4709,1 53778U 22111F   24142.87810860  .00008259  00000-0  53615-3 0  9995,2 53778  53.2163 347.3903 0001081 116.6895 243.4208 15.08855211 93660,6917.834,95.437,540.447,538.951,0.0
53778.0,STARLINK-4709,PAYLOAD,2024-05-21 22:39:51,15.08855401,0.0001029,53.2161,347.0928,114.4,245.71,0.00051667,7.948e-05,0.0,0 STARLINK-4709,1 53778U 22111F   24142.94434815  .00007948  00000-0  51667-3 0  9994,2 53778  53.2161 347.0928 0001029 114.4000 245.7100 15.08855401 94486,6917.833,95.437,540.41,538.986,0.0
53778.0,STARLINK-4709,PAYLOAD,2024-05-22 19:19:52,15.08845569,0.0001131,53.2169,343.2264,76.8172,283.2946,0.00028136,4.193e-05,0.0,0 STARLINK-4709,1 53778U 22111F   24143.80546932  .00004193  00000-0  28136-3 0  9998,2 53778  53.2169 343.2264 0001131  76.8172 283.2946 15.08845569 93804,6917.863,95.437,540.511,538.946,0.0
53778.0,STARLINK-4709,PAYLOAD,2024-05-22 22:30:38,15.08843942,9.44e-05,53.2159,342.6311,95.8834,264.2266,9.0471e-05,1.153e-05,0.0,0 STARLINK-4709,1 53778U 22111F   24143.93794781  .00001153  00000-0  90471-4 0  9994,2 53778  53.2159 342.6311 0000944  95.8834 264.2266 15.08843942 94635,6917.868,95.437,540.386,539.08,0.0
53778.0,STARLINK-4709,PAYLOAD,2024-05-23 19:10:39,15.0883973,0.0001135,53.2177,338.7654,80.5585,279.5535,4.6193e-05,4.47e-06,0.0,0 STARLINK-4709,1 53778U 22111F   24144.79907308  .00000447  00000-0  46193-4 0  9997,2 53778  53.2177 338.7654 0001135  80.5585 279.5535 15.08839730 93950,6917.881,95.438,540.531,538.961,0.0
53778.0,STARLINK-4709,PAYLOAD,2024-05-24 19:01:26,15.08844319,7.34e-05,53.2163,334.308,84.0507,276.0569,9.1283e-05,1.166e-05,0.0,0 STARLINK-4709,1 53778U 22111F   24145.79267111  .00001166  00000-0  91283-4 0  9998,2 53778  53.2163 334.3080 0000734  84.0507 276.0569 15.08844319 94912,6917.867,95.437,540.24,539.224,0.0
53778.0,STARLINK-4709,PAYLOAD,2024-05-25 18:52:13,15.08840786,9.7e-05,53.2157,329.8592,73.6654,286.4445,0.00021863,3.194e-05,0.0,0 STARLINK-4709,1 53778U 22111F   24146.78627274  .00003194  00000-0  21863-3 0  9997,2 53778  53.2157 329.8592 0000970  73.6654 286.4445 15.08840786 94250,6917.878,95.438,540.414,539.072,0.0
53778.0,STARLINK-4709,PAYLOAD,2024-05-26 12:21:28,15.08839668,7.89e-05,53.2166,326.5773,70.0776,290.0301,6.3412e-05,7.22e-06,0.0,0 STARLINK-4709,1 53778U 22111F   24147.51491249  .00000722  00000-0  63412-4 0  9991,2 53778  53.2166 326.5773 0000789  70.0776 290.0301 15.08839668 95170,6917.881,95.438,540.292,539.201,0.0
53778.0,STARLINK-4709,PAYLOAD,2024-05-26 18:43:12,15.08691066,9.99e-05,53.2174,325.3992,353.5052,6.5927,-0.001571,-0.00025101,0.0,0 STARLINK-4709,1 53778U 22111F   24147.78000368 -.00025101  00000-0 -15710-2 0  9994,2 53778  53.2174 325.3992 0000999 353.5052   6.5927 15.08691066 94405,6918.336,95.447,540.892,539.51,0.0
53778.0,STARLINK-4709,PAYLOAD,2024-05-26 21:53:46,15.08845706,0.0001013,53.2174,324.7916,92.7434,267.3674,5.4887e-05,5.86e-06,0.0,0 STARLINK-4709,1 53778U 22111F   24147.91234849  .00000586  00000-0  54887-4 0  9990,2 53778  53.2174 324.7916 0001013  92.7434 267.3674 15.08845706 95238,6917.863,95.437,540.429,539.027,0.0
53778.0,STARLINK-4709,PAYLOAD,2024-05-27 01:04:32,15.08849627,0.0001052,53.2174,324.1964,105.5509,254.5599,8.186e-05,1.016e-05,0.0,0 STARLINK-4709,1 53778U 22111F   24148.04482439  .00001016  00000-0  81860-4 0  9995,2 53778  53.2174 324.1964 0001052 105.5509 254.5599 15.08849627 94446,6917.851,95.437,540.444,538.988,0.0
53778.0,STARLINK-4709,PAYLOAD,2024-05-27 04:15:18,15.0884911,0.0001155,53.2175,323.6005,119.8984,240.2123,0.00010534,1.389e-05,0.0,0 STARLINK-4709,1 53778U 22111F   24148.17730286  .00001389  00000-0  10534-3 0  9997,2 53778  53.2175 323.6005 0001155 119.8984 240.2123 15.08849110 95270,6917.853,95.437,540.517,538.919,0.0
53778.0,STARLINK-4709,PAYLOAD,2024-05-27 18:33:49,15.08804847,0.0001319,53.2207,320.9254,99.2068,260.9073,0.00036341,5.495e-05,0.0,0 STARLINK-4709,1 53778U 22111F   24148.77348658  .00005495  00000-0  36341-3 0  9997,2 53778  53.2207 320.9254 0001319  99.2068 260.9073 15.08804847 94559,6917.988,95.44,540.765,538.94,0.0
53778.0,STARLINK-4709,PAYLOAD,2024-05-28 04:06:07,15.08831042,0.0001193,53.2198,319.1422,75.4696,284.6428,4.2409e-05,3.87e-06,0.0,0 STARLINK-4709,1 53778U 22111F   24149.17092214  .00000387  00000-0  42409-4 0  9994,2 53778  53.2198 319.1422 0001193  75.4696 284.6428 15.08831042 94619,6917.908,95.438,540.598,538.947,0.0
53778.0,STARLINK-4709,PAYLOAD,2024-05-28 10:27:39,15.08836377,0.0001104,53.2188,317.9507,92.6904,267.4215,6.9333e-05,8.16e-06,0.0,0 STARLINK-4709,1 53778U 22111F   24149.43587673  .00000816  00000-0  69333-4 0  9993,2 53778  53.2188 317.9507 0001104  92.6904 267.4215 15.08836377 95466,6917.891,95.438,540.52,538.993,0.0
